NORAD_CAT_ID,OBJECT_NAME,OBJECT_TYPE,EPOCH,MEAN_MOTION,ECCENTRICITY,INCLINATION,RA_OF_ASC_NODE,ARG_OF_PERICENTER,MEAN_ANOMALY,BSTAR,MEAN_MOTION_DOT,MEAN_MOTION_DDOT,TLE_LINE0,TLE_LINE1,TLE_LINE2,SEMIMAJOR_AXIS,PERIOD,APOGEE,PERIGEE,DECAYED
52500.0,STARLINK-3866,PAYLOAD,2022-12-12 08:14:08,15.08846163,0.0002939,53.2197,311.3654,24.5191,335.594,6.5665e-05,7.57e-06,0.0,0 STARLINK-3866,1 52500U 22049BB  22346.34315188  .00000757  00000-0  65665-4 0  9990,2 52500  53.2197 311.3654 0002939  24.5191 335.5940 15.08846163 33882,6917.861999999999,95.437,541.76,537.693,0.0
52500.0,STARLINK-3866,PAYLOAD,2022-12-13 03:18:46,15.08835674,0.0002889,53.2199,307.797,24.4213,335.6916,0.00010653,1.407e-05,0.0,0 STARLINK-3866,1 52500U 22049BB  22347.13803798  .00001407  00000-0  10653-3 0  9996,2 52500  53.2199 307.7970 0002889  24.4213 335.6916 15.08835674 34163,6917.894,95.438,541.757,537.76,0.0
52500.0,STARLINK-3866,PAYLOAD,2022-12-13 06:29:32,15.08832187,0.0002894,53.2195,307.2029,23.6654,336.4471,0.0001569,2.209e-05,0.0,0 STARLINK-3866,1 52500U 22049BB  22347.27051945  .00002209  00000-0  15690-3 0  9997,2 52500  53.2195 307.2029 0002894  23.6654 336.4471 15.08832187 34021,6917.904,95.438,541.771,537.7669999999998,0.0
52500.0,STARLINK-3866,PAYLOAD,2022-12-13 20:48:00,15.08842552,0.0002977,53.2199,304.5259,24.3635,335.7498,5.4699e-05,5.82e-06,0.0,0 STARLINK-3866,1 52500U 22049BB  22347.86667486  .00000582  00000-0  54699-4 0  9990,2 52500  53.2199 304.5259 0002977  24.3635 335.7498 15.08842552 34117,6917.873000000001,95.437,541.797,537.678,0.0
52500.0,STARLINK-3866,PAYLOAD,2022-12-14 06:20:19,15.08837712,0.000251,53.219,302.7424,27.5077,332.6047,7.0761e-06,-1.76e-06,0.0,0 STARLINK-3866,1 52500U 22049BB  22348.26411809 -.00000176  00000-0  70761-5 0  9990,2 52500  53.2190 302.7424 0002510  27.5077 332.6047 15.08837712 34332,6917.887,95.438,541.489,538.016,0.0
52500.0,STARLINK-3866,PAYLOAD,2022-12-14 14:17:15,15.08843849,0.0002757,53.2188,301.2558,22.5857,337.5256,2.1845e-05,5.9e-07,0.0,0 STARLINK-3866,1 52500U 22049BB  22348.59531395  .00000059  00000-0  21845-4 0  9996,2 52500  53.2188 301.2558 0002757  22.5857 337.5256 15.08843849 34227,6917.869000000002,95.437,541.641,537.826,0.0
52500.0,STARLINK-3866,PAYLOAD,2022-12-15 06:11:06,15.08842304,0.0002835,53.2185,298.282,24.2407,335.8718,8.1202e-05,1.004e-05,0.0,0 STARLINK-3866,1 52500U 22049BB  22349.25771466  .00001004  00000-0  81202-4 0  9999,2 52500  53.2185 298.2820 0002835  24.2407 335.8718 15.08842304 34328,6917.873000000001,95.437,541.7,537.7769999999998,0.0
52500.0,STARLINK-3866,PAYLOAD,2022-12-15 14:08:01,15.08849511,0.0002886,53.2188,296.7952,25.3903,334.723,0.00012944,1.773e-05,0.0,0 STARLINK-3866,1 52500U 22049BB  22349.58890785  .00001773  00000-0  12944-3 0  9990,2 52500  53.2188 296.7952 0002886  25.3903 334.7230 15.08849511 34536,6917.851,95.437,541.7130000000002,537.72,0.0
52500.0,STARLINK-3866,PAYLOAD,2022-12-15 20:29:34,15.08849071,0.0002811,53.2188,295.6055,25.2788,334.8341,0.00014516,2.023e-05,0.0,0 STARLINK-3866,1 52500U 22049BB  22349.85386652  .00002023  00000-0  14516-3 0  9999,2 52500  53.2188 295.6055 0002811  25.2788 334.8341 15.08849071 34418,6917.853,95.437,541.6619999999998,537.773,0.0
52500.0,STARLINK-3866,PAYLOAD,2022-12-16 06:01:52,15.08853447,0.0002712,53.2185,293.8209,27.5321,332.5814,1.3875e-06,-2.66e-06,0.0,0 STARLINK-3866,1 52500U 22049BB  22350.25130602 -.00000266  00000-0  13875-5 0  9994,2 52500  53.2185 293.8209 0002712  27.5321 332.5814 15.08853447 34472,6917.839,95.437,541.58,537.828,0.0
52500.0,STARLINK-3866,PAYLOAD,2022-12-16 20:20:21,15.08837358,0.0002782,53.2185,291.1454,34.1265,325.9906,5.1502e-05,5.31e-06,0.0,0 STARLINK-3866,1 52500U 22049BB  22350.84747679  .00000531  00000-0  51502-4 0  9999,2 52500  53.2185 291.1454 0002782  34.1265 325.9906 15.08837358 34722,6917.888000000001,95.438,541.678,537.8290000000002,0.0
52500.0,STARLINK-3866,PAYLOAD,2022-12-17 02:41:55,15.08826235,0.0002753,53.2184,289.9556,26.8573,333.2561,-2.7612e-05,-7.28e-06,0.0,0 STARLINK-3866,1 52500U 22049BB  22351.11244705 -.00000728  00000-0 -27612-4 0  9997,2 52500  53.2184 289.9556 0002753  26.8573 333.2561 15.08826235 34762,6917.922,95.438,541.692,537.883,0.0
52500.0,STARLINK-3866,PAYLOAD,2022-12-17 05:52:41,15.08828063,0.0002815,53.2175,289.3611,26.886,333.2277,-0.00015857,-2.811e-05,0.0,0 STARLINK-3866,1 52500U 22049BB  22351.24492218 -.00002811  00000-0 -15857-3 0  9997,2 52500  53.2175 289.3611 0002815  26.8860 333.2277 15.08828063 34626,6917.917,95.438,541.729,537.8340000000002,0.0
52500.0,STARLINK-3866,PAYLOAD,2022-12-18 04:08:06,15.08822568,0.0002817,53.2184,285.198,28.2877,331.8267,-5.2878e-05,-1.13e-05,0.0,0 STARLINK-3866,1 52500U 22049BB  22352.17229922 -.00001130  00000-0 -52878-4 0  9998,2 52500  53.2184 285.1980 0002817  28.2877 331.8267 15.08822568 34925,6917.934,95.439,541.747,537.85,0.0
52500.0,STARLINK-3866,PAYLOAD,2022-12-18 07:18:52,15.08830313,0.0002819,53.2184,284.603,28.656,331.4587,7.360199999999999e-06,-1.71e-06,0.0,0 STARLINK-3866,1 52500U 22049BB  22352.30477413 -.00000171  00000-0  73602-5 0  9995,2 52500  53.2184 284.6030 0002819  28.6560 331.4587 15.08830313 34782,6917.91,95.438,541.725,537.825,0.0
52500.0,STARLINK-3866,PAYLOAD,2022-12-19 05:34:16,15.08858252,0.0003037,53.2179,280.4404,27.4111,332.7041,0.00074864,0.00011653,0.0,0 STARLINK-3866,1 52500U 22049BB  22353.23213075  .00011653  00000-0  74864-3 0  9995,2 52500  53.2179 280.4404 0003037  27.4111 332.7041 15.08858252 35082,6917.825,95.436,541.7909999999998,537.589,0.0
52500.0,STARLINK-3866,PAYLOAD,2022-12-19 07:09:39,15.08864244,0.0002953,53.2176,280.1432,27.7851,332.3298,0.00090032,0.00014079,0.0,0 STARLINK-3866,1 52500U 22049BB  22353.29836976  .00014079  00000-0  90032-3 0  9992,2 52500  53.2176 280.1432 0002953  27.7851 332.3298 15.08864244 34938,6917.806,95.436,541.714,537.628,0.0
52500.0,STARLINK-3866,PAYLOAD,2022-12-19 19:52:44,15.088518900000002,0.0002829,53.2175,277.7644,27.3051,332.8089,0.00033561,5.059e-05,0.0,0 STARLINK-3866,1 52500U 22049BB  22353.82829186  .00005059  00000-0  33561-3 0  9998,2 52500  53.2175 277.7644 0002829  27.3051 332.8089 15.08851890 35010,6917.844,95.437,541.6659999999998,537.752,0.0
52500.0,STARLINK-3866,PAYLOAD,2022-12-19 23:03:30,15.08865461,0.0002758,53.2176,277.1698,31.0195,329.0959,0.00070881,0.00011019,0.0,0 STARLINK-3866,1 52500U 22049BB  22353.96076723  .00011019  00000-0  70881-3 0  9993,2 52500  53.2176 277.1698 0002758  31.0195 329.0959 15.08865461 35198,6917.803000000001,95.436,541.575,537.76,0.0
52500.0,STARLINK-3866,PAYLOAD,2022-12-20 03:49:39,15.08868392,0.0002713,53.2176,276.2782,31.9091,328.2065,0.0015132,0.00023896,0.0,0 STARLINK-3866,1 52500U 22049BB  22354.15948525  .00023896  00000-0  15132-2 0  9996,2 52500  53.2176 276.2782 0002713  31.9091 328.2065 15.08868392 35068,6917.794,95.436,541.535,537.7819999999998,0.0
52500.0,STARLINK-3866,PAYLOAD,2022-12-21 05:15:50,15.08827889,0.0002538,53.2176,271.5191,37.2771,322.8397,0.0001744,2.487e-05,0.0,0 STARLINK-3866,1 52500U 22049BB  22355.21933813  .00002487  00000-0  17440-3 0  9996,2 52500  53.2176 271.5191 0002538  37.2771 322.8397 15.08827889 35388,6917.917,95.438,541.538,538.0269999999998,0.0
52500.0,STARLINK-3866,PAYLOAD,2022-12-21 11:37:23,15.08831174,0.0002496,53.2173,270.3306,40.1577,319.9599,0.00013985,1.938e-05,0.0,0 STARLINK-3866,1 52500U 22049BB  22355.48430025  .00001938  00000-0  13985-3 0  9992,2 52500  53.2173 270.3306 0002496  40.1577 319.9599 15.08831174 35260,6917.906999999997,95.438,541.499,538.0459999999998,0.0
52500.0,STARLINK-3866,PAYLOAD,2022-12-22 11:28:10,15.08853294,0.0002555,53.2172,265.8695,43.6136,316.5058,0.00071915,0.0001118,0.0,0 STARLINK-3866,1 52500U 22049BB  22356.47789953  .00011180  00000-0  71915-3 0  9996,2 52500  53.2172 265.8695 0002555  43.6136 316.5058 15.08853294 35578,6917.84,95.437,541.472,537.937,0.0
52500.0,STARLINK-3866,PAYLOAD,2022-12-22 22:35:52,15.08841916,0.0002435,53.2169,263.7883,45.1736,314.9453,0.00015378,2.1600000000000007e-05,0.0,0 STARLINK-3866,1 52500U 22049BB  22356.94158115  .00002160  00000-0  15378-3 0  9997,2 52500  53.2169 263.7883 0002435  45.1736 314.9453 15.08841916 35647,6917.875,95.437,541.424,538.055,0.0
52500.0,STARLINK-3866,PAYLOAD,2022-12-23 11:18:57,15.08845511,0.000237,53.2166,261.41,43.1508,316.9669,0.00054545,8.405e-05,0.0,0 STARLINK-3866,1 52500U 22049BB  22357.47150153  .00008405  00000-0  54545-3 0  9997,2 52500  53.2166 261.4100 0002370  43.1508 316.9669 15.08845511 35561,6917.864000000001,95.437,541.368,538.089,0.0
52500.0,STARLINK-3866,PAYLOAD,2022-12-24 03:12:49,15.0884594,0.000239,53.2164,258.4375,42.6088,317.509,0.00043834,6.696e-05,0.0,0 STARLINK-3866,1 52500U 22049BB  22358.13390207  .00006696  00000-0  43834-3 0  9996,2 52500  53.2164 258.4375 0002390  42.6088 317.5090 15.08845940 35828,6917.861999999999,95.437,541.381,538.0740000000002,0.0
52500.0,STARLINK-3866,PAYLOAD,2022-12-24 11:09:44,15.08854743,0.00024,53.2166,256.9505,43.8256,316.2926,0.00056191,8.669999999999999e-05,0.0,0 STARLINK-3866,1 52500U 22049BB  22358.46509901  .00008670  00000-0  56191-3 0  9999,2 52500  53.2166 256.9505 0002400  43.8256 316.2926 15.08854743 35713,6917.835,95.437,541.361,538.04,0.0
52500.0,STARLINK-3866,PAYLOAD,2022-12-24 20:42:03,15.08850166,0.0002058,53.2166,255.1645,49.6927,310.4245,0.00027834,4.146e-05,0.0,0 STARLINK-3866,1 52500U 22049BB  22358.86253686  .00004146  00000-0  27834-3 0  9995,2 52500  53.2166 255.1645 0002058  49.6927 310.4245 15.08850166 35778,6917.849,95.437,541.138,538.2909999999998,0.0
52500.0,STARLINK-3866,PAYLOAD,2022-12-24 23:52:49,15.08852743,0.00024,53.2167,254.5719,41.2524,318.865,0.00033418,5.036e-05,0.0,0 STARLINK-3866,1 52500U 22049BB  22358.99501633  .00005036  00000-0  33418-3 0  9991,2 52500  53.2167 254.5719 0002400  41.2524 318.8650 15.08852743 35793,6917.840999999999,95.437,541.367,538.0459999999998,0.0
